ONEWEB-0707             
1 61612U 24188U   25364.69783172  .00000075  00000+0  17730-3 0  9994
2 61612  87.8805  69.8374 0001242 118.5733 241.5519 13.10376903 61252
ONEWEB-0708             
1 61613U 24188V   25364.71610853  .00000572  00000+0  16032-2 0  9998
2 61613  87.8793  69.8672 0001997 119.0064 241.1264 13.10372813 61237
